0 DELTA 1 DEB
1 21279U 75052Q   13282.56315443  .00000019  00000-0  90814-4 0  2828
2 21279 099.8276 154.1584 0055111 256.0314 163.6391 13.56686221110827
0 DELTA 1 DEB
1 21279U 75052Q   13288.17969131  .00000069  00000-0  16030-3 0  2844
2 21279 099.8265 159.7630 0055146 241.8130 235.3891 13.56687201111589
0 DELTA 1 DEB
1 21279U 75052Q   13290.60040862  .00000056  00000-0  14166-3 0  2851
2 21279 099.8259 162.1785 0055190 235.6836 178.4329 13.56687852111916
0 DELTA 1 DEB
1 21279U 75052Q   13293.19515366  .00000061  00000-0  14942-3 0  2863
2 21279 099.8256 164.7674 0055232 229.1094 251.4569 13.56688515112263
0 DELTA 1 DEB
1 21279U 75052Q   13295.48142542  .00000055  00000-0  14079-3 0  2874
2 21279 099.8255 167.0484 0055291 223.3442 257.8401 13.56688948112574
